NUSAT-52                
1 66692U 25276AC  26068.75420433  .00007671  00000+0  37393-3 0  9999
2 66692  97.4277 144.0115 0003268  28.4269 331.7143 15.18602485 15326
SPEQTRE                 
1 66769U 25276DH  26068.75606160  .00007042  00000+0  33483-3 0  9995
2 66769  97.4277 144.1551 0001387 149.2003 210.9313 15.19499769 15332
